ONEWEB-0656             
1 55817U 23029X   24135.49988611  .00000036  00000+0  56682-4 0  9992
2 55817  87.9215  66.3579 0002205  62.2996 297.8361 13.20772745 61022
ONEWEB-0657             
1 55818U 23029Y   24135.44624827  .00000083  00000+0  17584-3 0  9993
2 55818  87.9131  96.9728 0002699  68.5535 291.5885 13.19725247 58852
ONEWEB-0658             
1 55819U 23029Z   24134.60752822  .00000186  00000+0  43159-3 0  9999
2 55819  87.9129  97.0760 0002519  97.4549 262.6870 13.19726531 58079
ONEWEB-0660             
1 55820U 23029AA  24135.36079580  .00000138  00000+0  33812-3 0  9990
2 55820  87.8949  81.6547 0001852  98.7265 261.4075 13.14505723 59764
ONEWEB-0661             
1 55821U 23029AB  24134.55840989  .00000032  00000+0  52774-4 0  9992
2 55821  87.8954  81.8811 0001650  94.3752 265.7566 13.14504683 59627
ONEWEB-0662             
1 55822U 23029AC  24135.35447547  .00000012  00000+0 -23558-5 0  9993
2 55822  87.8951  81.7300 0002018  95.1063 265.0297 13.14504156 59797
ONEWEB-0663             
1 55823U 23029AD  24135.19022889  .00000061  00000+0  11851-3 0  9998
2 55823  87.9216  66.4804 0001958  94.0007 266.1350 13.20782999 60974
ONEWEB-0664             
1 55824U 23029AE  24134.80543845 -.00000394  00000+0 -10001-2 0  9992
2 55824  87.9214  66.5698 0001534  81.1866 278.9441 13.20773915 60245
